{
  "type": "FeatureCollection",
  "features": [
    {
      "type": "Feature",
      "properties": {
        "norad_id": 41003,
        "name": "FENGYUN 1C DEB",
        "group": "fengyun-1c-debris",
        "lat": -13.759347356404303,
        "lon": 86.06455635576246,
        "alt_km": 656.9463932440331,
        "timestamp": "2025-12-14T22:38:41.048076+00:00",
        "meta_object_name": "FENGYUN 1C DEB",
        "meta_object_id": "1999-025EXH",
        "meta_epoch": "2025-12-11T12:14:27.482784",
        "meta_mean_motion": 14.72686448,
        "meta_eccentricity": 0.0070582,
        "meta_inclination": 98.9647,
        "meta_ra_of_asc_node": 264.4932,
        "meta_arg_of_pericenter": 296.3478,
        "meta_mean_anomaly": 63.049,
        "meta_ephemeris_type": 0,
        "meta_classification_type": "U",
        "meta_norad_cat_id": 41003,
        "meta_element_set_no": 999,
        "meta_rev_at_epoch": 52402,
        "meta_bstar": 0.0094626523,
        "meta_mean_motion_dot": 0.00063247,
        "meta_mean_motion_ddot": 0,
        "tle_line1": "1 41003U 99025EXH 25345.51004031  .00063247  00000+0  94627-2 0  9997",
        "tle_line2": "2 41003  98.9647 264.4932 0070582 296.3478  63.0490 14.72686448524029"
      },
      "geometry": {
        "type": "Point",
        "coordinates": [
          86.06455635576246,
          -13.759347356404303
        ]
      }
    },
    {
      "type": "Feature",
      "properties": {
        "norad_id": 41006,
        "name": "FENGYUN 1C DEB",
        "group": "fengyun-1c-debris",
        "lat": 74.15858698337365,
        "lon": 91.07318621220796,
        "alt_km": 950.7672586457966,
        "timestamp": "2025-12-14T22:38:41.048086+00:00",
        "meta_object_name": "FENGYUN 1C DEB",
        "meta_object_id": "1999-025EXL",
        "meta_epoch": "2025-12-12T21:38:45.983904",
        "meta_mean_motion": 13.8536183,
        "meta_eccentricity": 0.01900708,
        "meta_inclination": 102.3668,
        "meta_ra_of_asc_node": 217.748,
        "meta_arg_of_pericenter": 8.2798,
        "meta_mean_anomaly": 352.1409,
        "meta_ephemeris_type": 0,
        "meta_classification_type": "U",
        "meta_norad_cat_id": 41006,
        "meta_element_set_no": 999,
        "meta_rev_at_epoch": 57491,
        "meta_bstar": 0.0039238836,
        "meta_mean_motion_dot": 5.076e-05,
        "meta_mean_motion_ddot": 0,
        "tle_line1": "1 41006U 99025EXL 25346.90192111  .00005076  00000+0  39239-2 0  9995",
        "tle_line2": "2 41006 102.3668 217.7480 0190070   8.2798 352.1409 13.85361830574917"
      },
      "geometry": {
        "type": "Point",
        "coordinates": [
          91.07318621220796,
          74.15858698337365
        ]
      }
    },
    {
      "type": "Feature",
      "properties": {
        "norad_id": 41007,
        "name": "FENGYUN 1C DEB",
        "group": "fengyun-1c-debris",
        "lat": -62.73267285346242,
        "lon": 35.81889497998849,
        "alt_km": 976.6108702311076,
        "timestamp": "2025-12-14T22:38:41.048096+00:00",
        "meta_object_name": "FENGYUN 1C DEB",
        "meta_object_id": "1999-025EXM",
        "meta_epoch": "2025-11-29T06:55:22.773792",
        "meta_mean_motion": 13.85678237,
        "meta_eccentricity": 0.01723955,
        "meta_inclination": 99.9731,
        "meta_ra_of_asc_node": 359.205,
        "meta_arg_of_pericenter": 79.2855,
        "meta_mean_anomaly": 282.7657,
        "meta_ephemeris_type": 0,
        "meta_classification_type": "U",
        "meta_norad_cat_id": 41007,
        "meta_element_set_no": 999,
        "meta_rev_at_epoch": 57212,
        "meta_bstar": 0.0017167305,
        "meta_mean_motion_dot": 2.158e-05,
        "meta_mean_motion_ddot": 0,
        "tle_line1": "1 41007U 99025EXM 25333.28845803  .00002158  00000+0  17167-2 0  9990",
        "tle_line2": "2 41007  99.9731 359.2050 0172395  79.2855 282.7657 13.85678237572123"
      },
      "geometry": {
        "type": "Point",
        "coordinates": [
          35.81889497998849,
          -62.73267285346242
        ]
      }
    },
    {
      "type": "Feature",
      "properties": {
        "norad_id": 41011,
        "name": "FENGYUN 1C DEB",
        "group": "fengyun-1c-debris",
        "lat": 5.46539336738543,
        "lon": -144.9910025473946,
        "alt_km": 971.7491817292539,
        "timestamp": "2025-12-14T22:38:41.048106+00:00",
        "meta_object_name": "FENGYUN 1C DEB",
        "meta_object_id": "1999-025EXR",
        "meta_epoch": "2025-12-13T09:13:26.824800",
        "meta_mean_motion": 14.42910702,
        "meta_eccentricity": 0.03100338,
        "meta_inclination": 99.1692,
        "meta_ra_of_asc_node": 32.4443,
        "meta_arg_of_pericenter": 356.2612,
        "meta_mean_anomaly": 3.6261,
        "meta_ephemeris_type": 0,
        "meta_classification_type": "U",
        "meta_norad_cat_id": 41011,
        "meta_element_set_no": 999,
        "meta_rev_at_epoch": 57166,
        "meta_bstar": 0.00089142659,
        "meta_mean_motion_dot": 5.283e-05,
        "meta_mean_motion_ddot": 0,
        "tle_line1": "1 41011U 99025EXR 25347.38433825  .00005283  00000+0  89143-3 0  9994",
        "tle_line2": "2 41011  99.1692  32.4443 0310033 356.2612   3.6261 14.42910702571663"
      },
      "geometry": {
        "type": "Point",
        "coordinates": [
          -144.9910025473946,
          5.46539336738543
        ]
      }
    },
    {
      "type": "Feature",
      "properties": {
        "norad_id": 41018,
        "name": "FENGYUN 1C DEB",
        "group": "fengyun-1c-debris",
        "lat": 35.060631792505916,
        "lon": 120.40450957488224,
        "alt_km": 864.937455129877,
        "timestamp": "2025-12-14T22:38:41.048116+00:00",
        "meta_object_name": "FENGYUN 1C DEB",
        "meta_object_id": "1999-025EXY",
        "meta_epoch": "2025-12-13T13:59:52.761120",
        "meta_mean_motion": 13.52365879,
        "meta_eccentricity": 0.03047371,
        "meta_inclination": 99.9367,
        "meta_ra_of_asc_node": 291.9743,
        "meta_arg_of_pericenter": 116.5578,
        "meta_mean_anomaly": 246.7133,
        "meta_ephemeris_type": 0,
        "meta_classification_type": "U",
        "meta_norad_cat_id": 41018,
        "meta_element_set_no": 999,
        "meta_rev_at_epoch": 88186,
        "meta_bstar": 0.0024715066,
        "meta_mean_motion_dot": 2.144e-05,
        "meta_mean_motion_ddot": 0,
        "tle_line1": "1 41018U 99025EXY 25347.58324955  .00002144  00000+0  24715-2 0  9992",
        "tle_line2": "2 41018  99.9367 291.9743 0304737 116.5578 246.7133 13.52365879881867"
      },
      "geometry": {
        "type": "Point",
        "coordinates": [
          120.40450957488224,
          35.060631792505916
        ]
      }
    },
    {
      "type": "Feature",
      "properties": {
        "norad_id": 41822,
        "name": "FENGYUN 1C DEB",
        "group": "fengyun-1c-debris",
        "lat": 36.2619894213683,
        "lon": 48.66728554267813,
        "alt_km": 846.3107934231248,
        "timestamp": "2025-12-14T22:38:41.048126+00:00",
        "meta_object_name": "FENGYUN 1C DEB",
        "meta_object_id": "1999-025EXZ",
        "meta_epoch": "2025-12-13T02:39:02.754720",
        "meta_mean_motion": 14.24802982,
        "meta_eccentricity": 0.00554372,
        "meta_inclination": 98.7324,
        "meta_ra_of_asc_node": 53.318,
        "meta_arg_of_pericenter": 219.4647,
        "meta_mean_anomaly": 140.2488,
        "meta_ephemeris_type": 0,
        "meta_classification_type": "U",
        "meta_norad_cat_id": 41822,
        "meta_element_set_no": 999,
        "meta_rev_at_epoch": 47378,
        "meta_bstar": 0.0024287115,
        "meta_mean_motion_dot": 5.714e-05,
        "meta_mean_motion_ddot": 0,
        "tle_line1": "1 41822U 99025EXZ 25347.11044855  .00005714  00000+0  24287-2 0  9992",
        "tle_line2": "2 41822  98.7324  53.3180 0055437 219.4647 140.2488 14.24802982473785"
      },
      "geometry": {
        "type": "Point",
        "coordinates": [
          48.66728554267813,
          36.2619894213683
        ]
      }
    },
    {
      "type": "Feature",
      "properties": {
        "norad_id": 41823,
        "name": "FENGYUN 1C DEB",
        "group": "fengyun-1c-debris",
        "lat": 78.64560915576634,
        "lon": -77.8943080065402,
        "alt_km": 828.2222509283674,
        "timestamp": "2025-12-14T22:38:41.048136+00:00",
        "meta_object_name": "FENGYUN 1C DEB",
        "meta_object_id": "1999-025EYA",
        "meta_epoch": "2025-12-14T03:37:44.817024",
        "meta_mean_motion": 14.23532073,
        "meta_eccentricity": 0.00547165,
        "meta_inclination": 98.7214,
        "meta_ra_of_asc_node": 51.4646,
        "meta_arg_of_pericenter": 224.1085,
        "meta_mean_anomaly": 135.5723,
        "meta_ephemeris_type": 0,
        "meta_classification_type": "U",
        "meta_norad_cat_id": 41823,
        "meta_element_set_no": 999,
        "meta_rev_at_epoch": 47378,
        "meta_bstar": 0.0016754486,
        "meta_mean_motion_dot": 3.829e-05,
        "meta_mean_motion_ddot": 0,
        "tle_line1": "1 41823U 99025EYA 25348.15121316  .00003829  00000+0  16754-2 0  9991",
        "tle_line2": "2 41823  98.7214  51.4646 0054716 224.1085 135.5723 14.23532073473787"
      },
      "geometry": {
        "type": "Point",
        "coordinates": [
          -77.8943080065402,
          78.64560915576634
        ]
      }
    }
  ]
}